COMMENT,ORIGINATOR,NORAD_CAT_ID,OBJECT_NAME,OBJECT_TYPE,CLASSIFICATION_TYPE,INTLDES,EPOCH,EPOCH_MICROSECONDS,MEAN_MOTION,ECCENTRICITY,INCLINATION,RA_OF_ASC_NODE,ARG_OF_PERICENTER,MEAN_ANOMALY,EPHEMERIS_TYPE,ELEMENT_SET_NO,REV_AT_EPOCH,BSTAR,MEAN_MOTION_DOT,MEAN_MOTION_DDOT,FILE,TLE_LINE0,TLE_LINE1,TLE_LINE2,OBJECT_ID,OBJECT_NUMBER,SEMIMAJOR_AXIS,PERIOD,APOGEE,PERIGEE,DECAYED
"GENERATED VIA SPACETRACK.ORG API","18 SPCS","48895","SPACEBEE-108","PAYLOAD","U","21059S","2023-09-26 21:49:18","918336","15.39177164","0.0005979","97.6064","50.016","270.1098","89.9462","0","999","12499","0.0019089","0.00074724","0","4017627","0 SPACEBEE-108","1 48895U 21059S   23269.90924674  .00074724  00000-0  19089-2 0  9997","2 48895  97.6064  50.0160 0005979 270.1098  89.9462 15.39177164124994","2021-059S","48895","6826.678","93.556","452.625","444.462","0"
"GENERATED VIA SPACETRACK.ORG API","18 SPCS","48895","SPACEBEE-108","PAYLOAD","U","21059S","2023-09-27 08:44:37","336128","15.39236583","0.0006018","97.6067","50.4879","268.0766","91.979","0","999","12506","0.0016187","0.00063381","0","4018203","0 SPACEBEE-108","1 48895U 21059S   23270.36432102  .00063381  00000-0  16187-2 0  9992","2 48895  97.6067  50.4879 0006018 268.0766  91.9790 15.39236583125068","2021-059S","48895","6826.503","93.553","452.476","444.259","0"
"GENERATED VIA SPACETRACK.ORG API","18 SPCS","48895","SPACEBEE-108","PAYLOAD","U","21059S","2023-09-27 14:59:04","348896","15.3926487","0.0005987","97.6067","50.7583","267.6482","92.4077","0","999","12510","0.0016407","0.00064311","0","4018274","0 SPACEBEE-108","1 48895U 21059S   23270.62435589  .00064311  00000-0  16407-2 0  9992","2 48895  97.6067  50.7583 0005987 267.6482  92.4077 15.39264870125106","2021-059S","48895","6826.419","93.551","452.371","444.197","0"
"GENERATED VIA SPACETRACK.ORG API","18 SPCS","48895","SPACEBEE-108","PAYLOAD","U","21059S","2023-09-28 08:08:46","188672","15.39353466","0.0006008","97.6072","51.4999","266.8029","93.2529","0","999","12521","0.0012912","0.0005065","0","4019158","0 SPACEBEE-108","1 48895U 21059S   23271.33942348  .00050650  00000-0  12912-2 0  9995","2 48895  97.6072  51.4999 0006008 266.8029  93.2529 15.39353466125217","2021-059S","48895","6826.157","93.546","452.123","443.921","0"
"GENERATED VIA SPACETRACK.ORG API","18 SPCS","48895","SPACEBEE-108","PAYLOAD","U","21059S","2023-09-28 08:08:46","188672","15.39353466","0.0006008","97.6072","51.4999","266.8029","93.2529","0","999","12521","0.0012912","0.0005065","0","4019237","0 SPACEBEE-108","1 48895U 21059S   23271.33942348  .00050650  00000-0  12912-2 0  9995","2 48895  97.6072  51.4999 0006008 266.8029  93.2529 15.39353466125217","2021-059S","48895","6826.157","93.546","452.123","443.921","0"
"GENERATED VIA SPACETRACK.ORG API","18 SPCS","48895","SPACEBEE-108","PAYLOAD","U","21059S","2023-09-28 22:11:12","506784","15.39418825","0.0005962","97.6073","52.1076","265.7041","94.3523","0","999","12530","0.0014169","0.00055744","0","4019377","0 SPACEBEE-108","1 48895U 21059S   23271.92445031  .00055744  00000-0  14169-2 0  9992","2 48895  97.6073  52.1076 0005962 265.7041  94.3523 15.39418825125309","2021-059S","48895","6825.964","93.542","451.898","443.759","0"
"GENERATED VIA SPACETRACK.ORG API","18 SPCS","48895","SPACEBEE-108","PAYLOAD","U","21059S","2023-09-29 09:06:24","689088","15.39477554","0.0005984","97.6074","52.5803","262.0546","98.002","0","999","12537","0.0014209","0.00056011","0","4019739","0 SPACEBEE-108","1 48895U 21059S   23272.37945242  .00056011  00000-0  14209-2 0  9994","2 48895  97.6074  52.5803 0005984 262.0546  98.0020 15.39477554125370","2021-059S","48895","6825.790","93.538","451.740","443.571","0"
"GENERATED VIA SPACETRACK.ORG API","18 SPCS","48895","SPACEBEE-108","PAYLOAD","U","21059S","2023-09-29 09:06:24","689088","15.39477554","0.0005984","97.6074","52.5803","262.0546","98.002","0","999","12537","0.0014209","0.00056011","0","4020020","0 SPACEBEE-108","1 48895U 21059S   23272.37945242  .00056011  00000-0  14209-2 0  9994","2 48895  97.6074  52.5803 0005984 262.0546  98.0020 15.39477554125370","2021-059S","48895","6825.790","93.538","451.740","443.571","0"
"GENERATED VIA SPACETRACK.ORG API","18 SPCS","48895","SPACEBEE-108","PAYLOAD","U","21059S","2023-09-29 21:35:10","981824","15.39549677","0.0006011","97.6075","53.1208","261.1845","98.8719","0","999","12545","0.0015631","0.00061818","0","4020347","0 SPACEBEE-108","1 48895U 21059S   23272.89943266  .00061818  00000-0  15631-2 0  9996","2 48895  97.6075  53.1208 0006011 261.1845  98.8719 15.39549677125459","2021-059S","48895","6825.577","93.534","451.545","443.339","0"
"GENERATED VIA SPACETRACK.ORG API","18 SPCS","48895","SPACEBEE-108","PAYLOAD","U","21059S","2023-09-29 21:35:10","981824","15.39549677","0.0006011","97.6075","53.1208","261.1845","98.8719","0","999","12545","0.0015631","0.00061818","0","4020886","0 SPACEBEE-108","1 48895U 21059S   23272.89943266  .00061818  00000-0  15631-2 0  9996","2 48895  97.6075  53.1208 0006011 261.1845  98.8719 15.39549677125459","2021-059S","48895","6825.577","93.534","451.545","443.339","0"
"GENERATED VIA SPACETRACK.ORG API","18 SPCS","48895","SPACEBEE-108","PAYLOAD","U","21059S","2023-09-30 22:32:37","558176","15.39691986","0.0006022","97.6083","54.2012","258.9048","101.152","0","999","12561","0.0016664","0.00066255","0","4021338","0 SPACEBEE-108","1 48895U 21059S   23273.93932359  .00066255  00000-0  16664-2 0  9990","2 48895  97.6083  54.2012 0006022 258.9048 101.1520 15.39691986125611","2021-059S","48895","6825.156","93.525","451.132","442.911","0"
"GENERATED VIA SPACETRACK.ORG API","18 SPCS","48895","SPACEBEE-108","PAYLOAD","U","21059S","2023-10-01 07:54:07","674336","15.3975929","0.0005969","97.6084","54.606","256.4528","103.6053","0","999","12567","0.0018858","0.00075242","0","4021565","0 SPACEBEE-108","1 48895U 21059S   23274.32925549  .00075242  00000-0  18858-2 0  9990","2 48895  97.6084  54.6060 0005969 256.4528 103.6053 15.39759290125671","2021-059S","48895","6824.958","93.521","450.896","442.749","0"
"GENERATED VIA SPACETRACK.ORG API","18 SPCS","48895","SPACEBEE-108","PAYLOAD","U","21059S","2023-10-01 07:54:07","674336","15.3975929","0.0005969","97.6084","54.606","256.4528","103.6053","0","999","12567","0.0018858","0.00075242","0","4021853","0 SPACEBEE-108","1 48895U 21059S   23274.32925549  .00075242  00000-0  18858-2 0  9990","2 48895  97.6084  54.6060 0005969 256.4528 103.6053 15.39759290125671","2021-059S","48895","6824.958","93.521","450.896","442.749","0"
"GENERATED VIA SPACETRACK.ORG API","18 SPCS","48895","SPACEBEE-108","PAYLOAD","U","21059S","2023-10-01 20:22:45","946560","15.39827496","0.0005934","97.6083","55.1469","255.6441","104.4146","0","999","12575","0.0017078","0.00068222","0","4022139","0 SPACEBEE-108","1 48895U 21059S   23274.84914290  .00068222  00000-0  17078-2 0  9991","2 48895  97.6083  55.1469 0005934 255.6441 104.4146 15.39827496125751","2021-059S","48895","6824.756","93.517","450.671","442.571","0"
"GENERATED VIA SPACETRACK.ORG API","18 SPCS","48895","SPACEBEE-108","PAYLOAD","U","21059S","2023-10-01 21:56:20","582304","15.39836232","0.0005942","97.6083","55.2144","255.4068","104.6518","0","999","12576","0.001677","0.00066998","0","4022192","0 SPACEBEE-108","1 48895U 21059S   23274.91412711  .00066998  00000-0  16770-2 0  9996","2 48895  97.6083  55.2144 0005942 255.4068 104.6518 15.39836232125768","2021-059S","48895","6824.730","93.516","450.650","442.540","0"
"GENERATED VIA SPACETRACK.ORG API","18 SPCS","48895","SPACEBEE-108","PAYLOAD","U","21059S","2023-10-02 08:51:22","38048","15.3990495","0.0005945","97.6086","55.6869","253.4766","106.5826","0","999","12583","0.0017364","0.00069554","0","4023120","0 SPACEBEE-108","1 48895U 21059S   23275.36900507  .00069554  00000-0  17364-2 0  9992","2 48895  97.6086  55.6869 0005945 253.4766 106.5826 15.39904950125839","2021-059S","48895","6824.527","93.512","450.449","442.335","0"
"GENERATED VIA SPACETRACK.ORG API","18 SPCS","48895","SPACEBEE-108","PAYLOAD","U","21059S","2023-10-02 22:53:30","21216","15.39989386","0.000594","97.6086","56.2952","252.8432","107.2163","0","999","12592","0.0018092","0.00072705","0","4023243","0 SPACEBEE-108","1 48895U 21059S   23275.95381969  .00072705  00000-0  18092-2 0  9993","2 48895  97.6086  56.2952 0005940 252.8432 107.2163 15.39989386125925","2021-059S","48895","6824.278","93.507","450.196","442.089","0"
"GENERATED VIA SPACETRACK.ORG API","18 SPCS","48895","SPACEBEE-108","PAYLOAD","U","21059S","2023-10-03 08:14:53","813760","15.40042452","0.0005944","97.6087","56.7001","250.694","109.3663","0","999","12598","0.001592","0.00064005","0","4023690","0 SPACEBEE-108","1 48895U 21059S   23276.34367840  .00064005  00000-0  15920-2 0  9990","2 48895  97.6087  56.7001 0005944 250.6940 109.3663 15.40042452125980","2021-059S","48895","6824.121","93.504","450.042","441.930","0"
"GENERATED VIA SPACETRACK.ORG API","18 SPCS","48895","SPACEBEE-108","PAYLOAD","U","21059S","2023-10-03 22:16:57","285120","15.40127985","0.0005863","97.6086","57.3084","249.9301","110.1313","0","999","12607","0.0018366","0.00074156","0","4023936","0 SPACEBEE-108","1 48895U 21059S   23276.92844080  .00074156  00000-0  18366-2 0  9995","2 48895  97.6086  57.3084 0005863 249.9301 110.1313 15.40127985126077","2021-059S","48895","6823.868","93.499","449.734","441.732","0"
"GENERATED VIA SPACETRACK.ORG API","18 SPCS","48895","SPACEBEE-108","PAYLOAD","U","21059S","2023-10-04 09:11:51","170496","15.40204891","0.0005864","97.6085","57.781","247.7259","112.3364","0","999","12614","0.0018269","0.00073949","0","4024259","0 SPACEBEE-108","1 48895U 21059S   23277.38323114  .00073949  00000-0  18269-2 0  9997","2 48895  97.6085  57.7810 0005864 247.7259 112.3364 15.40204891126146","2021-059S","48895","6823.641","93.494","449.507","441.505","0"
